[
    {
        "Altitude(m)": 610399.5544297692,
        "Argument of Periapsis(deg)": 0.0,
        "Eccentricity": 0.0,
        "Inclination(deg)": 60.0,
        "Latitude(deg)": 52.11140554576631,
        "Longitude(deg)": 162.5844152582046,
        "Mean Anomaly(deg)": 65.45449999999998,
        "RAAN(deg)": 215.0,
        "Satellite Name": "Test1 950",
        "Satellite Number": 950,
        "Semi-Major Axis(m)": 6980739.136638005,
        "Time(s)": 0
    },
    {
        "Altitude(m)": 610481.7050085983,
        "Argument of Periapsis(deg)": 0.00010418945913296404,
        "Eccentricity": 0.0,
        "Inclination(deg)": 60.0,
        "Latitude(deg)": 52.471006619901125,
        "Longitude(deg)": 163.36655414532385,
        "Mean Anomaly(deg)": 66.07460614546183,
        "RAAN(deg)": 214.99957995086024,
        "Satellite Name": "Test1 950",
        "Satellite Number": 950,
        "Semi-Major Axis(m)": 6980739.136638005,
        "Time(s)": 10
    }
]